STARLINK-35935          
1 66527U 25265M   25346.83335648 -.00226802  00000+0 -39549-2 0  9999
2 66527  43.0004  53.4216 0001409 262.0417  58.9844 15.50707214  5012
STARLINK-35928          
1 66528U 25265N   25346.83335648 -.00204563  00000+0 -35591-2 0  9993
2 66528  43.0006  53.4160 0001607 268.4489  54.5139 15.50686611  5018
STARLINK-35933          
1 66529U 25265P   25346.83335648 -.01303186  00000+0 -33557-1 0  9995
2 66529  43.0004  53.4850 0001468 283.8817  10.6861 15.41626386  5012
STARLINK-35961          
1 66530U 25265Q   25346.83335648 -.02070839  00000+0 -48667-1 0  9992
2 66530  43.0006  53.4403 0001305 271.6851  41.6419 15.44782538  5011
STARLINK-35960          
1 66531U 25265R   25346.83335648 -.02089446  00000+0 -44410-1 0  9999
2 66531  43.0006  53.4092 0001428 274.4131  50.9624 15.47697598  5019
STARLINK-35914          
1 66532U 25265S   25346.83335648 -.02162512  00000+0 -41528-1 0  9993
2 66532  43.0004  53.3963 0001716 257.6978  72.9176 15.50669380  5014
STARLINK-35707          
1 66533U 25265T   25346.83335648 -.00241819  00000+0 -42229-2 0  9990
2 66533  43.0004  53.3923 0001735 273.7203  58.7963 15.50721070  5013
STARLINK-35976          
1 66534U 25265U   25346.83335648 -.00231683  00000+0 -40422-2 0  9992
2 66534  43.0006  53.3883 0001586 266.4714  67.9758 15.50709744  5019
STARLINK-35514          
1 66535U 25265V   25346.83335648 -.00197371  00000+0 -34312-2 0  9999
2 66535  43.0006  53.3826 0001716 267.2730  69.1108 15.50681740  5017
STARLINK-35640          
1 66536U 25265W   25346.83335648 -.00014549  00000+0 -24259-3 0  9995
2 66536  43.0005  53.3780 0001456 271.3905  66.8684 15.50584065  4998
STARLINK-35582          
1 66537U 25265X   25346.83335648 -.00044747  00000+0 -76196-3 0  9996
2 66537  43.0005  53.3734 0001581 273.3701  66.9871 15.50553518  5015
STARLINK-35577          
1 66538U 25265Y   25346.83335648 -.00095256  00000+0 -16316-2 0  9995
2 66538  43.0007  53.3685 0001401 263.6188  78.3921 15.50682829  5016
