CCSDS_OMM_VERS = 2.0
CREATION_DATE  = 
ORIGINATOR     = 

OBJECT_NAME    = STARLINK-35935
OBJECT_ID      = 2025-265M
CENTER_NAME    = EARTH
REF_FRAME      = TEME
TIME_SYSTEM    = UTC
MEAN_ELEMENT_THEORY = SGP/SGP4

EPOCH          = 2025-12-12T20:00:01.999872
MEAN_MOTION    = 15.50707214
ECCENTRICITY   = .00014094
INCLINATION    = 43.0004
RA_OF_ASC_NODE = 53.4216
ARG_OF_PERICENTER = 262.0417
MEAN_ANOMALY   = 58.9844

EPHEMERIS_TYPE = 0
CLASSIFICATION_TYPE = U
NORAD_CAT_ID   = 66527
ELEMENT_SET_NO = 999
REV_AT_EPOCH   = 501
BSTAR          = -.395494E-2
MEAN_MOTION_DOT = -.226802E-2
MEAN_MOTION_DDOT = 0

CCSDS_OMM_VERS = 2.0
CREATION_DATE  = 
ORIGINATOR     = 

OBJECT_NAME    = STARLINK-35928
OBJECT_ID      = 2025-265N
CENTER_NAME    = EARTH
REF_FRAME      = TEME
TIME_SYSTEM    = UTC
MEAN_ELEMENT_THEORY = SGP/SGP4

EPOCH          = 2025-12-12T20:00:01.999872
MEAN_MOTION    = 15.50686611
ECCENTRICITY   = .00016072
INCLINATION    = 43.0006
RA_OF_ASC_NODE = 53.4160
ARG_OF_PERICENTER = 268.4489
MEAN_ANOMALY   = 54.5139

EPHEMERIS_TYPE = 0
CLASSIFICATION_TYPE = U
NORAD_CAT_ID   = 66528
ELEMENT_SET_NO = 999
REV_AT_EPOCH   = 501
BSTAR          = -.35590779E-2
MEAN_MOTION_DOT = -.204563E-2
MEAN_MOTION_DDOT = 0

CCSDS_OMM_VERS = 2.0
CREATION_DATE  = 
ORIGINATOR     = 

OBJECT_NAME    = STARLINK-35933
OBJECT_ID      = 2025-265P
CENTER_NAME    = EARTH
REF_FRAME      = TEME
TIME_SYSTEM    = UTC
MEAN_ELEMENT_THEORY = SGP/SGP4

EPOCH          = 2025-12-12T20:00:01.999872
MEAN_MOTION    = 15.41626386
ECCENTRICITY   = .00014685
INCLINATION    = 43.0004
RA_OF_ASC_NODE = 53.4850
ARG_OF_PERICENTER = 283.8817
MEAN_ANOMALY   = 10.6861

EPHEMERIS_TYPE = 0
CLASSIFICATION_TYPE = U
NORAD_CAT_ID   = 66529
ELEMENT_SET_NO = 999
REV_AT_EPOCH   = 501
BSTAR          = -.33557012E-1
MEAN_MOTION_DOT = -.1303186E-1
MEAN_MOTION_DDOT = 0

CCSDS_OMM_VERS = 2.0
CREATION_DATE  = 
ORIGINATOR     = 

OBJECT_NAME    = STARLINK-35961
OBJECT_ID      = 2025-265Q
CENTER_NAME    = EARTH
REF_FRAME      = TEME
TIME_SYSTEM    = UTC
MEAN_ELEMENT_THEORY = SGP/SGP4

EPOCH          = 2025-12-12T20:00:01.999872
MEAN_MOTION    = 15.44782538
ECCENTRICITY   = .00013051
INCLINATION    = 43.0006
RA_OF_ASC_NODE = 53.4403
ARG_OF_PERICENTER = 271.6851
MEAN_ANOMALY   = 41.6419

EPHEMERIS_TYPE = 0
CLASSIFICATION_TYPE = U
NORAD_CAT_ID   = 66530
ELEMENT_SET_NO = 999
REV_AT_EPOCH   = 501
BSTAR          = -.4866655E-1
MEAN_MOTION_DOT = -.2070839E-1
MEAN_MOTION_DDOT = 0

CCSDS_OMM_VERS = 2.0
CREATION_DATE  = 
ORIGINATOR     = 

OBJECT_NAME    = STARLINK-35960
OBJECT_ID      = 2025-265R
CENTER_NAME    = EARTH
REF_FRAME      = TEME
TIME_SYSTEM    = UTC
MEAN_ELEMENT_THEORY = SGP/SGP4

EPOCH          = 2025-12-12T20:00:01.999872
MEAN_MOTION    = 15.47697598
ECCENTRICITY   = .00014284
INCLINATION    = 43.0006
RA_OF_ASC_NODE = 53.4092
ARG_OF_PERICENTER = 274.4131
MEAN_ANOMALY   = 50.9624

EPHEMERIS_TYPE = 0
CLASSIFICATION_TYPE = U
NORAD_CAT_ID   = 66531
ELEMENT_SET_NO = 999
REV_AT_EPOCH   = 501
BSTAR          = -.4440985E-1
MEAN_MOTION_DOT = -.2089446E-1
MEAN_MOTION_DDOT = 0

CCSDS_OMM_VERS = 2.0
CREATION_DATE  = 
ORIGINATOR     = 

OBJECT_NAME    = STARLINK-35914
OBJECT_ID      = 2025-265S
CENTER_NAME    = EARTH
REF_FRAME      = TEME
TIME_SYSTEM    = UTC
MEAN_ELEMENT_THEORY = SGP/SGP4

EPOCH          = 2025-12-12T20:00:01.999872
MEAN_MOTION    = 15.50669380
ECCENTRICITY   = .00017168
INCLINATION    = 43.0004
RA_OF_ASC_NODE = 53.3963
ARG_OF_PERICENTER = 257.6978
MEAN_ANOMALY   = 72.9176

EPHEMERIS_TYPE = 0
CLASSIFICATION_TYPE = U
NORAD_CAT_ID   = 66532
ELEMENT_SET_NO = 999
REV_AT_EPOCH   = 501
BSTAR          = -.41527891E-1
MEAN_MOTION_DOT = -.2162512E-1
MEAN_MOTION_DDOT = 0

CCSDS_OMM_VERS = 2.0
CREATION_DATE  = 
ORIGINATOR     = 

OBJECT_NAME    = STARLINK-35707
OBJECT_ID      = 2025-265T
CENTER_NAME    = EARTH
REF_FRAME      = TEME
TIME_SYSTEM    = UTC
MEAN_ELEMENT_THEORY = SGP/SGP4

EPOCH          = 2025-12-12T20:00:01.999872
MEAN_MOTION    = 15.50721070
ECCENTRICITY   = .00017352
INCLINATION    = 43.0004
RA_OF_ASC_NODE = 53.3923
ARG_OF_PERICENTER = 273.7203
MEAN_ANOMALY   = 58.7963

EPHEMERIS_TYPE = 0
CLASSIFICATION_TYPE = U
NORAD_CAT_ID   = 66533
ELEMENT_SET_NO = 999
REV_AT_EPOCH   = 501
BSTAR          = -.42229305E-2
MEAN_MOTION_DOT = -.241819E-2
MEAN_MOTION_DDOT = 0

CCSDS_OMM_VERS = 2.0
CREATION_DATE  = 
ORIGINATOR     = 

OBJECT_NAME    = STARLINK-35976
OBJECT_ID      = 2025-265U
CENTER_NAME    = EARTH
REF_FRAME      = TEME
TIME_SYSTEM    = UTC
MEAN_ELEMENT_THEORY = SGP/SGP4

EPOCH          = 2025-12-12T20:00:01.999872
MEAN_MOTION    = 15.50709744
ECCENTRICITY   = .00015864
INCLINATION    = 43.0006
RA_OF_ASC_NODE = 53.3883
ARG_OF_PERICENTER = 266.4714
MEAN_ANOMALY   = 67.9758

EPHEMERIS_TYPE = 0
CLASSIFICATION_TYPE = U
NORAD_CAT_ID   = 66534
ELEMENT_SET_NO = 999
REV_AT_EPOCH   = 501
BSTAR          = -.40422319E-2
MEAN_MOTION_DOT = -.231683E-2
MEAN_MOTION_DDOT = 0

CCSDS_OMM_VERS = 2.0
CREATION_DATE  = 
ORIGINATOR     = 

OBJECT_NAME    = STARLINK-35514
OBJECT_ID      = 2025-265V
CENTER_NAME    = EARTH
REF_FRAME      = TEME
TIME_SYSTEM    = UTC
MEAN_ELEMENT_THEORY = SGP/SGP4

EPOCH          = 2025-12-12T20:00:01.999872
MEAN_MOTION    = 15.50681740
ECCENTRICITY   = .00017163
INCLINATION    = 43.0006
RA_OF_ASC_NODE = 53.3826
ARG_OF_PERICENTER = 267.2730
MEAN_ANOMALY   = 69.1108

EPHEMERIS_TYPE = 0
CLASSIFICATION_TYPE = U
NORAD_CAT_ID   = 66535
ELEMENT_SET_NO = 999
REV_AT_EPOCH   = 501
BSTAR          = -.34311566E-2
MEAN_MOTION_DOT = -.197371E-2
MEAN_MOTION_DDOT = 0

CCSDS_OMM_VERS = 2.0
CREATION_DATE  = 
ORIGINATOR     = 

OBJECT_NAME    = STARLINK-35640
OBJECT_ID      = 2025-265W
CENTER_NAME    = EARTH
REF_FRAME      = TEME
TIME_SYSTEM    = UTC
MEAN_ELEMENT_THEORY = SGP/SGP4

EPOCH          = 2025-12-12T20:00:01.999872
MEAN_MOTION    = 15.50584065
ECCENTRICITY   = .00014569
INCLINATION    = 43.0005
RA_OF_ASC_NODE = 53.3780
ARG_OF_PERICENTER = 271.3905
MEAN_ANOMALY   = 66.8684

EPHEMERIS_TYPE = 0
CLASSIFICATION_TYPE = U
NORAD_CAT_ID   = 66536
ELEMENT_SET_NO = 999
REV_AT_EPOCH   = 499
BSTAR          = -.24258616E-3
MEAN_MOTION_DOT = -.14549E-3
MEAN_MOTION_DDOT = 0

CCSDS_OMM_VERS = 2.0
CREATION_DATE  = 
ORIGINATOR     = 

OBJECT_NAME    = STARLINK-35582
OBJECT_ID      = 2025-265X
CENTER_NAME    = EARTH
REF_FRAME      = TEME
TIME_SYSTEM    = UTC
MEAN_ELEMENT_THEORY = SGP/SGP4

EPOCH          = 2025-12-12T20:00:01.999872
MEAN_MOTION    = 15.50553518
ECCENTRICITY   = .00015818
INCLINATION    = 43.0005
RA_OF_ASC_NODE = 53.3734
ARG_OF_PERICENTER = 273.3701
MEAN_ANOMALY   = 66.9871

EPHEMERIS_TYPE = 0
CLASSIFICATION_TYPE = U
NORAD_CAT_ID   = 66537
ELEMENT_SET_NO = 999
REV_AT_EPOCH   = 501
BSTAR          = -.76196043E-3
MEAN_MOTION_DOT = -.44747E-3
MEAN_MOTION_DDOT = 0

CCSDS_OMM_VERS = 2.0
CREATION_DATE  = 
ORIGINATOR     = 

OBJECT_NAME    = STARLINK-35577
OBJECT_ID      = 2025-265Y
CENTER_NAME    = EARTH
REF_FRAME      = TEME
TIME_SYSTEM    = UTC
MEAN_ELEMENT_THEORY = SGP/SGP4

EPOCH          = 2025-12-12T20:00:01.999872
MEAN_MOTION    = 15.50682829
ECCENTRICITY   = .00014017
INCLINATION    = 43.0007
RA_OF_ASC_NODE = 53.3685
ARG_OF_PERICENTER = 263.6188
MEAN_ANOMALY   = 78.3921

EPHEMERIS_TYPE = 0
CLASSIFICATION_TYPE = U
NORAD_CAT_ID   = 66538
ELEMENT_SET_NO = 999
REV_AT_EPOCH   = 501
BSTAR          = -.16316176E-2
MEAN_MOTION_DOT = -.95256E-3
MEAN_MOTION_DDOT = 0

